{"type": "FeatureCollection", "features": [ {"type": "Feature", "properties": {"norad_id": 66967, "name": "STARLINK-36136", "group": "last-30-days", "lat": -33.1121062837956, "lon": 82.60279548142856, "alt_km": 320.506603762914, "timestamp": "2025-12-19T06:59:42.652598+00:00", "meta": {"OBJECT_NAME": "STARLINK-36136", "OBJECT_ID": "2025-288J", "EPOCH": "2025-12-18T22:00:00.999936", "MEAN_MOTION": 15.85222769, "ECCENTRICITY": 0.0001844, "INCLINATION": 43.0013, "RA_OF_ASC_NODE": 129.3266, "ARG_OF_PERICENTER": 271.7635, "MEAN_ANOMALY": 54.295, "EPHEMERIS_TYPE": 0, "CLASSIFICATION_TYPE": "U", "NORAD_CAT_ID": 66967, "ELEMENT_SET_NO": 999, "REV_AT_EPOCH": 282, "BSTAR": -0.0061295541, "MEAN_MOTION_DOT": -0.01322701, "MEAN_MOTION_DDOT": 0}, "tle": {"line1": "1 66967U 25288J   25352.91667824 -.01322701  00000+0 -61296-2 0  9992", "line2": "2 66967  43.0013 129.3266 0001844 271.7635  54.2950 15.85222769  2828"}}, "geometry": {"type": "Point", "coordinates": [82.60279548142856, -33.1121062837956]}}, {"type": "Feature", "properties": {"norad_id": 66968, "name": "STARLINK-36152", "group": "last-30-days", "lat": -31.790715855033962, "lon": 85.32182447660949, "alt_km": 320.5124862916409, "timestamp": "2025-12-19T06:59:42.652608+00:00", "meta": {"OBJECT_NAME": "STARLINK-36152", "OBJECT_ID": "2025-288K", "EPOCH": "2025-12-18T22:00:00.999936", "MEAN_MOTION": 15.85210526, "ECCENTRICITY": 0.00016597, "INCLINATION": 43.0012, "RA_OF_ASC_NODE": 129.32, "ARG_OF_PERICENTER": 281.2883, "MEAN_ANOMALY": 47.4525, "EPHEMERIS_TYPE": 0, "CLASSIFICATION_TYPE": "U", "NORAD_CAT_ID": 66968, "ELEMENT_SET_NO": 999, "REV_AT_EPOCH": 282, "BSTAR": -0.0061856938, "MEAN_MOTION_DOT": -0.01332488, "MEAN_MOTION_DDOT": 0}, "tle": {"line1": "1 66968U 25288K   25352.91667824 -.01332488  00000+0 -61857-2 0  9999", "line2": "2 66968  43.0012 129.3200 0001659 281.2883  47.4525 15.85210526  2821"}}, "geometry": {"type": "Point", "coordinates": [85.32182447660949, -31.790715855033962]}}, {"type": "Feature", "properties": {"norad_id": 66969, "name": "STARLINK-36149", "group": "last-30-days", "lat": -25.381461502950533, "lon": 96.3778080101399, "alt_km": 320.1963234558616, "timestamp": "2025-12-19T06:59:42.652618+00:00", "meta": {"OBJECT_NAME": "STARLINK-36149", "OBJECT_ID": "2025-288L", "EPOCH": "2025-12-18T22:00:00.999936", "MEAN_MOTION": 15.85223929, "ECCENTRICITY": 0.00017971, "INCLINATION": 43.001, "RA_OF_ASC_NODE": 129.2905, "ARG_OF_PERICENTER": 281.5938, "MEAN_ANOMALY": 58.8048, "EPHEMERIS_TYPE": 0, "CLASSIFICATION_TYPE": "U", "NORAD_CAT_ID": 66969, "ELEMENT_SET_NO": 999, "REV_AT_EPOCH": 282, "BSTAR": -0.0063862759, "MEAN_MOTION_DOT": -0.01371086, "MEAN_MOTION_DDOT": 0}, "tle": {"line1": "1 66969U 25288L   25352.91667824 -.01371086  00000+0 -63863-2 0  9996", "line2": "2 66969  43.0010 129.2905 0001797 281.5938  58.8048 15.85223929  2825"}}, "geometry": {"type": "Point", "coordinates": [96.3778080101399, -25.381461502950533]}}, {"type": "Feature", "properties": {"norad_id": 66970, "name": "STARLINK-35703", "group": "last-30-days", "lat": -19.685075124810695, "lon": 104.38353230289651, "alt_km": 320.03921604085554, "timestamp": "2025-12-19T06:59:42.652628+00:00", "meta": {"OBJECT_NAME": "STARLINK-35703", "OBJECT_ID": "2025-288M", "EPOCH": "2025-12-18T22:00:00.999936", "MEAN_MOTION": 15.85236559, "ECCENTRICITY": 0.00017059, "INCLINATION": 43.0012, "RA_OF_ASC_NODE": 129.2667, "ARG_OF_PERICENTER": 279.3865, "MEAN_ANOMALY": 70.3728, "EPHEMERIS_TYPE": 0, "CLASSIFICATION_TYPE": "U", "NORAD_CAT_ID": 66970, "ELEMENT_SET_NO": 999, "REV_AT_EPOCH": 282, "BSTAR": -0.0065978723, "MEAN_MOTION_DOT": -0.01411204, "MEAN_MOTION_DDOT": 0}, "tle": {"line1": "1 66970U 25288M   25352.91667824 -.01411204  00000+0 -65979-2 0  9995", "line2": "2 66970  43.0012 129.2667 0001705 279.3865  70.3728 15.85236559  2824"}}, "geometry": {"type": "Point", "coordinates": [104.38353230289651, -19.685075124810695]}}, {"type": "Feature", "properties": {"norad_id": 66971, "name": "STARLINK-35678", "group": "last-30-days", "lat": -30.905046800079816, "lon": 87.04076308821256, "alt_km": 320.35268288729185, "timestamp": "2025-12-19T06:59:42.652640+00:00", "meta": {"OBJECT_NAME": "STARLINK-35678", "OBJECT_ID": "2025-288N", "EPOCH": "2025-12-18T22:00:00.999936", "MEAN_MOTION": 15.85243611, "ECCENTRICITY": 0.000178, "INCLINATION": 43.0015, "RA_OF_ASC_NODE": 129.3162, "ARG_OF_PERICENTER": 278.7666, "MEAN_ANOMALY": 51.6501, "EPHEMERIS_TYPE": 0, "CLASSIFICATION_TYPE": "U", "NORAD_CAT_ID": 66971, "ELEMENT_SET_NO": 999, "REV_AT_EPOCH": 282, "BSTAR": -0.0062055008, "MEAN_MOTION_DOT": -0.01338212, "MEAN_MOTION_DDOT": 0}, "tle": {"line1": "1 66971U 25288N   25352.91667824 -.01338212  00000+0 -62055-2 0  9995", "line2": "2 66971  43.0015 129.3162 0001780 278.7666  51.6501 15.85243611  2822"}}, "geometry": {"type": "Point", "coordinates": [87.04076308821256, -30.905046800079816]}}, {"type": "Feature", "properties": {"norad_id": 66972, "name": "STARLINK-34846", "group": "last-30-days", "lat": -29.502709221267807, "lon": 89.61489194525278, "alt_km": 320.38461386474046, "timestamp": "2025-12-19T06:59:42.652650+00:00", "meta": {"OBJECT_NAME": "STARLINK-34846", "OBJECT_ID": "2025-288P", "EPOCH": "2025-12-18T22:00:00.999936", "MEAN_MOTION": 15.85234183, "ECCENTRICITY": 0.00017972, "INCLINATION": 43.0013, "RA_OF_ASC_NODE": 129.3093, "ARG_OF_PERICENTER": 276.3935, "MEAN_ANOMALY": 56.6811, "EPHEMERIS_TYPE": 0, "CLASSIFICATION_TYPE": "U", "NORAD_CAT_ID": 66972, "ELEMENT_SET_NO": 999, "REV_AT_EPOCH": 282, "BSTAR": -0.0062875689, "MEAN_MOTION_DOT": -0.01353155, "MEAN_MOTION_DDOT": 0}, "tle": {"line1": "1 66972U 25288P   25352.91667824 -.01353155  00000+0 -62876-2 0  9990", "line2": "2 66972  43.0013 129.3093 0001797 276.3935  56.6811 15.85234183  2828"}}, "geometry": {"type": "Point", "coordinates": [89.61489194525278, -29.502709221267807]}}, {"type": "Feature", "properties": {"norad_id": 66973, "name": "STARLINK-35778", "group": "last-30-days", "lat": -28.18204693651632, "lon": 91.8996696453315, "alt_km": 320.34198077840574, "timestamp": "2025-12-19T06:59:42.652662+00:00", "meta": {"OBJECT_NAME": "STARLINK-35778", "OBJECT_ID": "2025-288Q", "EPOCH": "2025-12-18T22:00:00.999936", "MEAN_MOTION": 15.85233077, "ECCENTRICITY": 0.00017415, "INCLINATION": 43.0015, "RA_OF_ASC_NODE": 129.3033, "ARG_OF_PERICENTER": 279.0112, "MEAN_ANOMALY": 56.4742, "EPHEMERIS_TYPE": 0, "CLASSIFICATION_TYPE": "U", "NORAD_CAT_ID": 66973, "ELEMENT_SET_NO": 999, "REV_AT_EPOCH": 282, "BSTAR": -0.0063217771, "MEAN_MOTION_DOT": -0.0135948, "MEAN_MOTION_DDOT": 0}, "tle": {"line1": "1 66973U 25288Q   25352.91667824 -.01359480  00000+0 -63218-2 0  9999", "line2": "2 66973  43.0015 129.3033 0001741 279.0112  56.4742 15.85233077  2823"}}, "geometry": {"type": "Point", "coordinates": [91.8996696453315, -28.18204693651632]}}, {"type": "Feature", "properties": {"norad_id": 66974, "name": "STARLINK-35780", "group": "last-30-days", "lat": -26.866121581043558, "lon": 94.06048382865593, "alt_km": 320.21620734744647, "timestamp": "2025-12-19T06:59:42.652672+00:00", "meta": {"OBJECT_NAME": "STARLINK-35780", "OBJECT_ID": "2025-288R", "EPOCH": "2025-12-18T22:00:00.999936", "MEAN_MOTION": 15.8523356, "ECCENTRICITY": 0.00018516, "INCLINATION": 43.0015, "RA_OF_ASC_NODE": 129.2976, "ARG_OF_PERICENTER": 280.1919, "MEAN_ANOMALY": 57.6263, "EPHEMERIS_TYPE": 0, "CLASSIFICATION_TYPE": "U", "NORAD_CAT_ID": 66974, "ELEMENT_SET_NO": 999, "REV_AT_EPOCH": 282, "BSTAR": -0.0063508571, "MEAN_MOTION_DOT": -0.01365052, "MEAN_MOTION_DDOT": 0}, "tle": {"line1": "1 66974U 25288R   25352.91667824 -.01365052  00000+0 -63509-2 0  9995", "line2": "2 66974  43.0015 129.2976 0001851 280.1919  57.6263 15.85233560  2827"}}, "geometry": {"type": "Point", "coordinates": [94.06048382865593, -26.866121581043558]}}, {"type": "Feature", "properties": {"norad_id": 66975, "name": "STARLINK-35777", "group": "last-30-days", "lat": -24.12264830940831, "lon": 98.2587239776965, "alt_km": 320.1745700176025, "timestamp": "2025-12-19T06:59:42.652684+00:00", "meta": {"OBJECT_NAME": "STARLINK-35777", "OBJECT_ID": "2025-288S", "EPOCH": "2025-12-18T22:00:00.999936", "MEAN_MOTION": 15.85235429, "ECCENTRICITY": 0.00017742, "INCLINATION": 43.0017, "RA_OF_ASC_NODE": 129.2854, "ARG_OF_PERICENTER": 278.63, "MEAN_ANOMALY": 63.882, "EPHEMERIS_TYPE": 0, "CLASSIFICATION_TYPE": "U", "NORAD_CAT_ID": 66975, "ELEMENT_SET_NO": 999, "REV_AT_EPOCH": 282, "BSTAR": -0.0064078088, "MEAN_MOTION_DOT": -0.01375774, "MEAN_MOTION_DDOT": 0}, "tle": {"line1": "1 66975U 25288S   25352.91667824 -.01375774  00000+0 -64078-2 0  9990", "line2": "2 66975  43.0017 129.2854 0001774 278.6300  63.8820 15.85235429  2829"}}, "geometry": {"type": "Point", "coordinates": [98.2587239776965, -24.12264830940831]}}, {"type": "Feature", "properties": {"norad_id": 66976, "name": "STARLINK-35772", "group": "last-30-days", "lat": -29.23000095289485, "lon": -15.872178096616503, "alt_km": 347.9066018006097, "timestamp": "2025-12-19T06:59:42.652694+00:00", "meta": {"OBJECT_NAME": "STARLINK-35772", "OBJECT_ID": "2025-288T", "EPOCH": "2025-12-18T22:00:00.999936", "MEAN_MOTION": 15.75447402, "ECCENTRICITY": 0.00020306, "INCLINATION": 43.0007, "RA_OF_ASC_NODE": 129.4969, "ARG_OF_PERICENTER": 264.2571, "MEAN_ANOMALY": 353.9118, "EPHEMERIS_TYPE": 0, "CLASSIFICATION_TYPE": "U", "NORAD_CAT_ID": 66976, "ELEMENT_SET_NO": 999, "REV_AT_EPOCH": 282, "BSTAR": -0.0092201828, "MEAN_MOTION_DOT": -0.01292456, "MEAN_MOTION_DDOT": 0}, "tle": {"line1": "1 66976U 25288T   25352.91667824 -.01292456  00000+0 -92202-2 0  9996", "line2": "2 66976  43.0007 129.4969 0002030 264.2571 353.9118 15.75447402  2823"}}, "geometry": {"type": "Point", "coordinates": [-15.872178096616503, -29.23000095289485]}}]}